NORAD_CAT_ID,OBJECT_NAME,OBJECT_TYPE,EPOCH,MEAN_MOTION,ECCENTRICITY,INCLINATION,RA_OF_ASC_NODE,ARG_OF_PERICENTER,MEAN_ANOMALY,BSTAR,MEAN_MOTION_DOT,MEAN_MOTION_DDOT,TLE_LINE0,TLE_LINE1,TLE_LINE2,SEMIMAJOR_AXIS,PERIOD,APOGEE,PERIGEE,DECAYED
56456.0,STARLINK-5995,PAYLOAD,2023-05-29 04:40:44,15.69922578,0.0003454,69.999,193.387,265.7161,94.364,7.6554e-05,9.002e-05,0.0,0 STARLINK-5995,1 56456U 23064J   23149.19496030  .00009002  00000-0  76554-4 0  9994,2 56456  69.9990 193.3870 0003454 265.7161  94.3640 15.69922578  3277,6737.256,91.724,361.448,356.793,0.0
56456.0,STARLINK-5995,PAYLOAD,2023-05-29 12:19:30,15.69930163,0.0003411,69.999,192.4916,265.5351,94.5455,0.00016636,0.00019843,0.0,0 STARLINK-5995,1 56456U 23064J   23149.51354354  .00019843  00000-0  16636-3 0  9990,2 56456  69.9990 192.4916 0003411 265.5351  94.5455 15.69930163  2971,6737.234,91.724,361.397,356.801,0.0
56456.0,STARLINK-5995,PAYLOAD,2023-05-29 19:58:15,15.69929394,0.000347,69.9988,191.5954,266.6483,93.4316,0.00016639,0.00019846,0.0,0 STARLINK-5995,1 56456U 23064J   23149.83212818  .00019846  00000-0  16639-3 0  9999,2 56456  69.9988 191.5954 0003470 266.6483  93.4316 15.69929394  3028,6737.236,91.724,361.439,356.763,0.0
56456.0,STARLINK-5995,PAYLOAD,2023-05-30 02:05:16,15.69925312,0.0003551,69.9988,190.8788,266.1183,93.9607,7.0495e-05,8.273e-05,0.0,0 STARLINK-5995,1 56456U 23064J   23150.08699522  .00008273  00000-0  70495-4 0  9992,2 56456  69.9988 190.8788 0003551 266.1183  93.9607 15.69925312  3414,6737.248,91.724,361.505,356.72,0.0
56456.0,STARLINK-5995,PAYLOAD,2023-05-30 12:47:32,15.69935392,0.0003477,69.9988,189.6251,265.7891,94.2907,8.7467e-05,0.00010322,0.0,0 STARLINK-5995,1 56456U 23064J   23150.53301030  .00010322  00000-0  87467-4 0  9991,2 56456  69.9988 189.6251 0003477 265.7891  94.2907 15.69935392  3138,6737.219,91.724,361.426,356.741,0.0
56456.0,STARLINK-5995,PAYLOAD,2023-05-30 20:26:17,15.69926866,0.0003473,69.9981,188.7292,268.0046,92.0752,1.707e-05,1.84e-05,0.0,0 STARLINK-5995,1 56456U 23064J   23150.85159427  .00001840  00000-0  17070-4 0  9995,2 56456  69.9981 188.7292 0003473 268.0046  92.0752 15.69926866  3185,6737.243,91.724,361.448,356.768,0.0
56456.0,STARLINK-5995,PAYLOAD,2023-05-31 02:33:18,15.69926643,0.0003462,69.9975,188.0126,267.7795,92.3004,1.3841e-05,1.452e-05,0.0,0 STARLINK-5995,1 56456U 23064J   23151.10646088  .00001452  00000-0  13841-4 0  9999,2 56456  69.9975 188.0126 0003462 267.7795  92.3004 15.69926643  3571,6737.244,91.724,361.441,356.776,0.0
56456.0,STARLINK-5995,PAYLOAD,2023-05-31 11:43:49,15.69926484,0.0003467,69.9975,186.9378,267.2747,92.8052,3.2183e-05,3.659e-05,0.0,0 STARLINK-5995,1 56456U 23064J   23151.48876158  .00003659  00000-0  32183-4 0  9994,2 56456  69.9975 186.9378 0003467 267.2747  92.8052 15.69926484  3283,6737.244,91.724,361.445,356.774,0.0
56456.0,STARLINK-5995,PAYLOAD,2023-05-31 20:54:20,15.69920013,0.0003431,69.9973,185.8625,268.2933,91.787,3.9462e-05,4.534e-05,0.0,0 STARLINK-5995,1 56456U 23064J   23151.87106596  .00004534  00000-0  39462-4 0  9999,2 56456  69.9973 185.8625 0003431 268.2933  91.7870 15.69920013  3348,6737.263,91.724,361.439,356.816,0.0
56456.0,STARLINK-5995,PAYLOAD,2023-06-01 03:01:20,15.69923089,0.0003578,69.9974,185.1463,267.8112,92.2674,6.6621e-06,5.88e-06,0.0,0 STARLINK-5995,1 56456U 23064J   23152.12592983  .00000588  00000-0  66621-5 0  9990,2 56456  69.9974 185.1463 0003578 267.8112  92.2674 15.69923089  3735,6737.254,91.724,361.53,356.708,0.0
56456.0,STARLINK-5995,PAYLOAD,2023-06-01 04:33:05,15.69922065,0.000359,69.9973,184.9672,267.5164,92.562,6.6716e-06,5.89e-06,0.0,0 STARLINK-5995,1 56456U 23064J   23152.18964742  .00000589  00000-0  66716-5 0  9998,2 56456  69.9973 184.9672 0003590 267.5164  92.5620 15.69922065  3390,6737.257,91.724,361.541,356.703,0.0
56456.0,STARLINK-5995,PAYLOAD,2023-06-01 19:50:36,15.69930855,0.0003419,69.9975,183.1755,266.1591,93.9214,2.3248e-05,2.584e-05,0.0,0 STARLINK-5995,1 56456U 23064J   23152.82680977  .00002584  00000-0  23248-4 0  9993,2 56456  69.9975 183.1755 0003419 266.1591  93.9214 15.69930855  3495,6737.232,91.724,361.4,356.793,0.0
56456.0,STARLINK-5995,PAYLOAD,2023-06-02 09:36:22,15.6992063,0.0003447,69.997,181.5634,265.5546,94.5256,4.8709e-06,3.73e-06,0.0,0 STARLINK-5995,1 56456U 23064J   23153.40026499  .00000373  00000-0  48709-5 0  9995,2 56456  69.9970 181.5634 0003447 265.5546  94.5256 15.69920630  3934,6737.261,91.724,361.448,356.804,0.0
56456.0,STARLINK-5995,PAYLOAD,2023-06-02 11:08:08,15.69917757,0.0003592,69.9971,181.3841,264.7922,95.2864,-5.0169e-06,-8.16e-06,0.0,0 STARLINK-5995,1 56456U 23064J   23153.46398309 -.00000816  00000-0 -50169-5 0  9990,2 56456  69.9971 181.3841 0003592 264.7922  95.2864 15.69917757  3594,6737.269,91.725,361.554,356.714,0.0
56456.0,STARLINK-5995,PAYLOAD,2023-06-02 18:46:53,15.6993346,0.0003587,69.997,180.4883,265.1483,94.9303,2.0719e-05,2.28e-05,0.0,0 STARLINK-5995,1 56456U 23064J   23153.78255859  .00002280  00000-0  20719-4 0  9999,2 56456  69.9970 180.4883 0003587 265.1483  94.9303 15.69933460  3649,6737.224,91.724,361.506,356.673,0.0
56456.0,STARLINK-5995,PAYLOAD,2023-06-03 10:04:24,15.69925193,0.0003848,69.9977,178.7019,251.8394,108.2382,2.3552e-05,2.62e-05,0.0,0 STARLINK-5995,1 56456U 23064J   23154.41972916  .00002620  00000-0  23552-4 0  9996,2 56456  69.9977 178.7019 0003848 251.8394 108.2382 15.69925193  4090,6737.248,91.724,361.706,356.521,0.0
56456.0,STARLINK-5995,PAYLOAD,2023-06-03 11:36:10,15.69920586,0.0003539,69.9975,178.5194,266.3865,93.6926,6.4956e-06,5.68e-06,0.0,0 STARLINK-5995,1 56456U 23064J   23154.48344977  .00000568  00000-0  64956-5 0  9996,2 56456  69.9975 178.5194 0003539 266.3865  93.6926 15.69920586  3755,6737.261,91.724,361.511,356.742,0.0
56456.0,STARLINK-5995,PAYLOAD,2023-06-03 19:14:55,15.69926596,0.0003381,69.9961,177.6219,271.4519,88.6289,2.1848e-06,5e-07,0.0,0 STARLINK-5995,1 56456U 23064J   23154.80203278  .00000050  00000-0  21848-5 0  9999,2 56456  69.9961 177.6219 0003381 271.4519  88.6289 15.69926596  3805,6737.244,91.724,361.387,356.831,0.0
56456.0,STARLINK-5995,PAYLOAD,2023-06-04 02:53:41,15.69920374,0.0003615,69.9963,176.7258,264.7739,95.3044,8.0312e-06,7.53e-06,0.0,0 STARLINK-5995,1 56456U 23064J   23155.12061771  .00000753  00000-0  80312-5 0  9996,2 56456  69.9963 176.7258 0003615 264.7739  95.3044 15.69920374  4206,6737.262,91.724,361.562,356.691,0.0
56456.0,STARLINK-5995,PAYLOAD,2023-06-04 10:32:26,15.69924631,0.0003375,69.9969,175.8305,265.8143,94.2667,1.3352e-05,1.393e-05,0.0,0 STARLINK-5995,1 56456U 23064J   23155.43919864  .00001393  00000-0  13352-4 0  9995,2 56456  69.9969 175.8305 0003375 265.8143  94.2667 15.69924631  3904,6737.25,91.724,361.388,356.841,0.0
56456.0,STARLINK-5995,PAYLOAD,2023-06-04 15:07:42,15.69919774,0.0003338,69.9969,175.2931,267.9361,92.1453,2.5354e-05,2.836e-05,0.0,0 STARLINK-5995,1 56456U 23064J   23155.63035061  .00002836  00000-0  25354-4 0  9993,2 56456  69.9969 175.2931 0003338 267.9361  92.1453 15.69919774  3932,6737.264,91.724,361.377,356.88,0.0
56456.0,STARLINK-5995,PAYLOAD,2023-06-05 04:53:28,15.69922102,0.0003428,69.9973,173.6809,266.6481,93.4323,4.8155e-06,3.66e-06,0.0,0 STARLINK-5995,1 56456U 23064J   23156.20380247  .00000366  00000-0  48155-5 0  9997,2 56456  69.9973 173.6809 0003428 266.6481  93.4323 15.69922102  4370,6737.257,91.724,361.431,356.812,0.0
56456.0,STARLINK-5995,PAYLOAD,2023-06-05 12:32:14,15.69921359,0.0003287,69.9967,172.7843,267.18,92.902,1.7102e-05,1.844e-05,0.0,0 STARLINK-5995,1 56456U 23064J   23156.52238500  .00001844  00000-0  17102-4 0  9995,2 56456  69.9967 172.7843 0003287 267.1800  92.9020 15.69921359  4073,6737.259,91.724,361.339,356.909,0.0
56456.0,STARLINK-5995,PAYLOAD,2023-06-05 18:39:14,15.69920774,0.000333,69.9966,172.0679,270.3657,89.7157,9.1957e-06,8.93e-06,0.0,0 STARLINK-5995,1 56456U 23064J   23156.77725386  .00000893  00000-0  91957-5 0  9999,2 56456  69.9966 172.0679 0003330 270.3657  89.7157 15.69920774  4117,6737.261,91.724,361.369,356.882,0.0
56456.0,STARLINK-5995,PAYLOAD,2023-06-06 08:25:00,15.69923465,0.0003447,69.9972,170.4568,269.3546,90.7254,1.0013e-05,9.91e-06,0.0,0 STARLINK-5995,1 56456U 23064J   23157.35070238  .00000991  00000-0  10013-4 0  9995,2 56456  69.9972 170.4568 0003447 269.3546  90.7254 15.69923465  4555,6737.253,91.724,361.44,356.796,0.0
56456.0,STARLINK-5995,PAYLOAD,2023-06-06 09:56:45,15.69921927,0.0003464,69.9971,170.2776,269.2674,90.8124,8.1723e-06,7.7e-06,0.0,0 STARLINK-5995,1 56456U 23064J   23157.41442051  .00000770  00000-0  81723-5 0  9990,2 56456  69.9971 170.2776 0003464 269.2674  90.8124 15.69921927  4214,6737.257,91.724,361.456,356.789,0.0
56456.0,STARLINK-5995,PAYLOAD,2023-06-06 13:00:16,15.69924306,0.0003513,69.9969,169.9194,268.9615,91.1178,5.4985e-06,4.48e-06,0.0,0 STARLINK-5995,1 56456U 23064J   23157.54185263  .00000448  00000-0  54985-5 0  9995,2 56456  69.9969 169.9194 0003513 268.9615  91.1178 15.69924306  4235,6737.251,91.724,361.482,356.749,0.0
56456.0,STARLINK-5995,PAYLOAD,2023-06-07 10:24:48,15.69919098,0.0003578,69.9971,167.4112,267.8531,92.2255,1.0757e-05,1.08e-05,0.0,0 STARLINK-5995,1 56456U 23064J   23158.43388992  .00001080  00000-0  10757-4 0  9999,2 56456  69.9971 167.4112 0003578 267.8531  92.2255 15.69919098  4721,6737.265,91.724,361.541,356.72,0.0
56456.0,STARLINK-5995,PAYLOAD,2023-06-07 11:56:33,15.699227,0.0003585,69.9972,167.2323,268.7428,91.3357,9.6149e-06,9.43e-06,0.0,0 STARLINK-5995,1 56456U 23064J   23158.49760480  .00000943  00000-0  96149-5 0  9998,2 56456  69.9972 167.2323 0003585 268.7428  91.3357 15.69922700  4386,6737.255,91.724,361.535,356.705,0.0
56456.0,STARLINK-5995,PAYLOAD,2023-06-07 18:03:32,15.69929719,0.0003581,69.9968,166.5157,266.088,93.9907,1.6902e-05,1.82e-05,0.0,0 STARLINK-5995,1 56456U 23064J   23158.75246489  .00001820  00000-0  16902-4 0  9998,2 56456  69.9968 166.5157 0003581 266.0880  93.9907 15.69929719  4776,6737.235,91.724,361.513,356.687,0.0
